{
    "links": {
        "self": "http://www.neowsapp.com/rest/v1/neo/3654484?api_key=iIulBulltgU6a56xZRHN4H3l9WmuAYTsLGpBGhQ2"
    },
    "id": "3654484",
    "neo_reference_id": "3654484",
    "name": "(2013 XS21)",
    "designation": "2013 XS21",
    "nasa_jpl_url": "http://ssd.jpl.nasa.gov/sbdb.cgi?sstr=3654484",
    "absolute_magnitude_h": 29.4,
    "estimated_diameter": {
        "kilometers": {
            "estimated_diameter_min": 0.0035039264,
            "estimated_diameter_max": 0.0078350176
        },
        "meters": {
            "estimated_diameter_min": 3.5039264111,
            "estimated_diameter_max": 7.8350176433
        },
        "miles": {
            "estimated_diameter_min": 0.0021772383,
            "estimated_diameter_max": 0.0048684527
        },
        "feet": {
            "estimated_diameter_min": 11.4958219265,
            "estimated_diameter_max": 25.705439285
        }
    },
    "is_potentially_hazardous_asteroid": false,
    "close_approach_data": [
        {
            "close_approach_date": "2003-01-26",
            "close_approach_date_full": "2003-Jan-26 03:48",
            "epoch_date_close_approach": 1043552880000,
            "relative_velocity": {
                "kilometers_per_second": "22.753764989",
                "kilometers_per_hour": "81913.5539605177",
                "miles_per_hour": "50897.8969039672"
            },
            "miss_distance": {
                "astronomical": "0.4866889027",
                "lunar": "189.3219831503",
                "kilometers": "72807623.196557249",
                "miles": "45240559.2217340762"
            },
            "orbiting_body": "Earth"
        },
        {
            "close_approach_date": "2013-12-11",
            "close_approach_date_full": "2013-Dec-11 15:25",
            "epoch_date_close_approach": 1386775500000,
            "relative_velocity": {
                "kilometers_per_second": "6.9912963982",
                "kilometers_per_hour": "25168.6670336608",
                "miles_per_hour": "15638.8309132211"
            },
            "miss_distance": {
                "astronomical": "0.0022997258",
                "lunar": "0.8945933362",
                "kilometers": "344034.081264046",
                "miles": "213772.8653179948"
            },
            "orbiting_body": "Moon"
        },
        {
            "close_approach_date": "2013-12-11",
            "close_approach_date_full": "2013-Dec-11 23:26",
            "epoch_date_close_approach": 1386804360000,
            "relative_velocity": {
                "kilometers_per_second": "8.2636213334",
                "kilometers_per_hour": "29749.0368003351",
                "miles_per_hour": "18484.8945607416"
            },
            "miss_distance": {
                "astronomical": "0.0004846795",
                "lunar": "0.1885403255",
                "kilometers": "72507.020832665",
                "miles": "45053.773574177"
            },
            "orbiting_body": "Earth"
        }
    ],
    "orbital_data": {
        "orbit_id": "4",
        "orbit_determination_date": "2017-04-06 08:43:19",
        "first_observation_date": "2013-12-12",
        "last_observation_date": "2013-12-14",
        "data_arc_in_days": 2,
        "observations_used": 25,
        "orbit_uncertainty": "7",
        "minimum_orbit_intersection": "4.69777E-5",
        "jupiter_tisserand_invariant": "3.771",
        "epoch_osculation": "2459000.5",
        "eccentricity": ".4948250751888852",
        "semi_major_axis": "1.914025148755105",
        "inclination": "3.080085453302165",
        "ascending_node_longitude": "80.40894561826094",
        "orbital_period": "967.2080144578681",
        "perihelion_distance": ".9669175106089428",
        "perihelion_argument": "341.1525939794839",
        "aphelion_distance": "2.861132786901266",
        "perihelion_time": "2458559.091689480223",
        "mean_anomaly": "164.2945358307323",
        "mean_motion": ".3722053525391685",
        "equinox": "J2000",
        "orbit_class": {
            "orbit_class_type": "APO",
            "orbit_class_description": "Near-Earth asteroid orbits which cross the Earth’s orbit similar to that of 1862 Apollo",
            "orbit_class_range": "a (semi-major axis) > 1.0 AU; q (perihelion) < 1.017 AU"
        }
    },
    "is_sentry_object": false
}